IRIDIUM 126             
1 42809U 17039G   24191.55632832  .00000263  00000+0  86981-4 0  9990
2 42809  86.3970 289.3485 0002164 100.5555 259.5884 14.34218099368527
IRIDIUM 124             
1 42810U 17039H   24191.60057808  .00000474  00000+0  13483-3 0  9992
2 42810  86.4490 226.0628 0002642  88.9810 271.1693 14.43290455373056
IRIDIUM 128             
1 42811U 17039J   24191.61683867  .00000413  00000+0  14051-3 0  9999
2 42811  86.3985 320.8535 0002366  96.9476 263.1989 14.34219535368564
IRIDIUM 133             
1 42955U 17061A   24191.43924412  .00000359  00000+0  12121-3 0  9992
2 42955  86.3986 321.0279 0002131  97.1142 263.0296 14.34218275353334
IRIDIUM 100             
1 42956U 17061B   24191.43289864  .00000218  00000+0  70754-4 0  9999
2 42956  86.3985 320.9658 0002123  95.4697 264.6741 14.34219772353335
IRIDIUM 122             
1 42957U 17061C   24191.61049394  .00000329  00000+0  11031-3 0  9997
2 42957  86.3984 320.8899 0002193  97.0294 263.1151 14.34219201353368
IRIDIUM 129             
1 42958U 17061D   24191.63586675  .00000390  00000+0  13204-3 0  9990
2 42958  86.3986 320.9388 0002171 101.9201 258.2238 14.34217339353387
